[{"OBJECT_NAME":"STARLINK-5983","OBJECT_ID":"2023-094G","EPOCH":"2026-03-09T22:00:01.999584","MEAN_MOTION":15.16743376,"ECCENTRICITY":0.00013318,"INCLINATION":43.0022,"RA_OF_ASC_NODE":28.7705,"ARG_OF_PERICENTER":223.3645,"MEAN_ANOMALY":292.738,"EPHEMERIS_TYPE":0,"CLASSIFICATION_TYPE":"U","NORAD_CAT_ID":57224,"ELEMENT_SET_NO":999,"REV_AT_EPOCH":577,"BSTAR":0.060915258,"MEAN_MOTION_DOT":0.01320603,"MEAN_MOTION_DDOT":0},{"OBJECT_NAME":"TRANSPORTER-15 OBJECT R","OBJECT_ID":"2025-276R","EPOCH":"2026-03-09T16:52:42.731904","MEAN_MOTION":15.20705036,"ECCENTRICITY":0.00051791,"INCLINATION":97.4189,"RA_OF_ASC_NODE":143.9638,"ARG_OF_PERICENTER":19.2989,"MEAN_ANOMALY":340.8441,"EPHEMERIS_TYPE":0,"CLASSIFICATION_TYPE":"U","NORAD_CAT_ID":66681,"ELEMENT_SET_NO":999,"REV_AT_EPOCH":1532,"BSTAR":0.00086230498,"MEAN_MOTION_DOT":0.00018928,"MEAN_MOTION_DDOT":0}]
